COMMENT,ORIGINATOR,NORAD_CAT_ID,OBJECT_NAME,OBJECT_TYPE,CLASSIFICATION_TYPE,INTLDES,EPOCH,EPOCH_MICROSECONDS,MEAN_MOTION,ECCENTRICITY,INCLINATION,RA_OF_ASC_NODE,ARG_OF_PERICENTER,MEAN_ANOMALY,EPHEMERIS_TYPE,ELEMENT_SET_NO,REV_AT_EPOCH,BSTAR,MEAN_MOTION_DOT,MEAN_MOTION_DDOT,FILE,TLE_LINE0,TLE_LINE1,TLE_LINE2,OBJECT_ID,OBJECT_NUMBER,SEMIMAJOR_AXIS,PERIOD,APOGEE,PERIGEE,DECAYED,date
GENERATED VIA SPACETRACK.ORG API,18 SPCS,48897,SPACEBEE-109,PAYLOAD,U,21059U,2023/2/15 14:19,177632,15.23456607,0.0008457,97.5791,181.7233,335.2816,24.8014,0,999,9084,0.0020763,0.00049749,0,3793706,0 SPACEBEE-109,1 48897U 21059U   23046.59657613  .00049749  00000-0  20763-2 0  9993,2 48897  97.5791 181.7233 0008457 335.2816  24.8014 15.23456607 90842,2021-059U,48897,6873.561,94.522,501.239,489.613,0,2023/4/3
GENERATED VIA SPACETRACK.ORG API,18 SPCS,48897,SPACEBEE-109,PAYLOAD,U,21059U,2023/2/15 22:11,570944,15.23486754,0.0008492,97.5791,182.0551,333.9357,26.1451,0,999,9089,0.0020419,0.00048962,0,3795153,0 SPACEBEE-109,1 48897U 21059U   23046.92498346  .00048962  00000-0  20419-2 0  9990,2 48897  97.5791 182.0551 0008492 333.9357  26.1451 15.23486754 90894,2021-059U,48897,6873.47,94.52,501.172,489.498,0,2023/4/4
GENERATED VIA SPACETRACK.ORG API,18 SPCS,48897,SPACEBEE-109,PAYLOAD,U,21059U,2023/2/15 22:11,570944,15.23486754,0.0008492,97.5791,182.0551,333.9357,26.1451,0,999,9089,0.0020419,0.00048962,0,3795717,0 SPACEBEE-109,1 48897U 21059U   23046.92498346  .00048962  00000-0  20419-2 0  9990,2 48897  97.5791 182.0551 0008492 333.9357  26.1451 15.23486754 90894,2021-059U,48897,6873.47,94.52,501.172,489.498,0,2023/4/5
GENERATED VIA SPACETRACK.ORG API,18 SPCS,48897,SPACEBEE-109,PAYLOAD,U,21059U,2023/2/16 7:39,30240,15.23524467,0.0008533,97.5791,182.4536,332.651,27.4276,0,999,9095,0.0019644,0.00047143,0,3798293,0 SPACEBEE-109,1 48897U 21059U   23047.31906285  .00047143  00000-0  19644-2 0  9998,2 48897  97.5791 182.4536 0008533 332.6510  27.4276 15.23524467 90954,2021-059U,48897,6873.357,94.518,501.087,489.357,0,2023/4/6
GENERATED VIA SPACETRACK.ORG API,18 SPCS,48897,SPACEBEE-109,PAYLOAD,U,21059U,2023/2/16 21:50,199840,15.23579825,0.0008587,97.5797,183.0507,331.1278,28.9482,0,999,9104,0.0018962,0.00045569,0,3799178,0 SPACEBEE-109,1 48897U 21059U   23047.91016435  .00045569  00000-0  18962-2 0  9995,2 48897  97.5797 183.0507 0008587 331.1278  28.9482 15.23579825 91043,2021-059U,48897,6873.19,94.514,500.957,489.153,0,2023/4/7
GENERATED VIA SPACETRACK.ORG API,18 SPCS,48897,SPACEBEE-109,PAYLOAD,U,21059U,2023/2/17 4:08,949856,15.23596514,0.0008651,97.5798,183.3162,330.1438,29.9304,0,999,9108,0.0015964,0.00038335,0,3799948,0 SPACEBEE-109,1 48897U 21059U   23048.17286979  .00038335  00000-0  15964-2 0  9998,2 48897  97.5798 183.3162 0008651 330.1438  29.9304 15.23596514 91085,2021-059U,48897,6873.14,94.513,500.951,489.059,0,2023/4/8
GENERATED VIA SPACETRACK.ORG API,18 SPCS,48897,SPACEBEE-109,PAYLOAD,U,21059U,2023/2/17 8:52,74016,15.23611388,0.0008605,97.5798,183.5153,329.5974,30.4762,0,999,9111,0.0014651,0.00035176,0,3802730,0 SPACEBEE-109,1 48897U 21059U   23048.36989669  .00035176  00000-0  14651-2 0  9997,2 48897  97.5798 183.5153 0008605 329.5974  30.4762 15.23611388 91119,2021-059U,48897,6873.095,94.512,500.875,489.046,0,2023/4/9
GENERATED VIA SPACETRACK.ORG API,18 SPCS,48897,SPACEBEE-109,PAYLOAD,U,21059U,2023/2/17 19:54,114432,15.23641192,0.0008586,97.58,183.9799,328.1179,31.9537,0,999,9118,0.0012348,0.00029639,0,3804075,0 SPACEBEE-109,1 48897U 21059U   23048.82961938  .00029639  00000-0  12348-2 0  9995,2 48897  97.5800 183.9799 0008586 328.1179  31.9537 15.23641192 91182,2021-059U,48897,6873.006,94.51,500.772,488.97,0,2023/4/10
GENERATED VIA SPACETRACK.ORG API,18 SPCS,48897,SPACEBEE-109,PAYLOAD,U,21059U,2023/2/18 8:31,606528,15.23670143,0.0008526,97.5801,184.5107,326.0725,33.9965,0,999,9126,0.0011348,0.00027247,0,3805814,0 SPACEBEE-109,1 48897U 21059U   23049.35500702  .00027247  00000-0  11348-2 0  9994,2 48897  97.5801 184.5107 0008526 326.0725  33.9965 15.23670143 91265,2021-059U,48897,6872.919,94.509,500.643,488.924,0,2023/4/11
GENERATED VIA SPACETRACK.ORG API,18 SPCS,48897,SPACEBEE-109,PAYLOAD,U,21059U,2023/2/18 8:31,606528,15.23670143,0.0008526,97.5801,184.5107,326.0725,33.9965,0,999,9126,0.0011348,0.00027247,0,3807124,0 SPACEBEE-109,1 48897U 21059U   23049.35500702  .00027247  00000-0  11348-2 0  9994,2 48897  97.5801 184.5107 0008526 326.0725  33.9965 15.23670143 91265,2021-059U,48897,6872.919,94.509,500.643,488.924,0,2023/4/12
GENERATED VIA SPACETRACK.ORG API,18 SPCS,48897,SPACEBEE-109,PAYLOAD,U,21059U,2023/2/19 8:09,950016,15.2372857,0.0008525,97.5803,185.5062,322.2538,37.8099,0,999,9141,0.0012214,0.00029392,0,3811610,0 SPACEBEE-109,1 48897U 21059U   23050.34008044  .00029392  00000-0  12214-2 0  9993,2 48897  97.5803 185.5062 0008525 322.2538  37.8099 15.23728570 91413,2021-059U,48897,6872.743,94.505,500.467,488.749,0,2023/4/13
GENERATED VIA SPACETRACK.ORG API,18 SPCS,48897,SPACEBEE-109,PAYLOAD,U,21059U,2023/2/20 4:39,831328,15.23774546,0.0008545,97.5807,186.3691,319.2976,40.7621,0,999,9154,0.0011982,0.00028869,0,3813802,0 SPACEBEE-109,1 48897U 21059U   23051.19378277  .00028869  00000-0  11982-2 0  9994,2 48897  97.5807 186.3691 0008545 319.2976  40.7621 15.23774546 91540,2021-059U,48897,6872.605,94.502,500.342,488.597,0,2023/4/14
GENERATED VIA SPACETRACK.ORG API,18 SPCS,48897,SPACEBEE-109,PAYLOAD,U,21059U,2023/2/20 7:48,282464,15.2378258,0.0008659,97.5809,186.5018,318.7631,41.2951,0,999,9156,0.0011898,0.00028673,0,3815761,0 SPACEBEE-109,1 48897U 21059U   23051.32511901  .00028673  00000-0  11898-2 0  9991,2 48897  97.5809 186.5018 0008659 318.7631  41.2951 15.23782580 91566,2021-059U,48897,6872.581,94.502,500.397,488.495,0,2023/4/15
GENERATED VIA SPACETRACK.ORG API,18 SPCS,48897,SPACEBEE-109,PAYLOAD,U,21059U,2023/2/21 7:26,425024,15.23841884,0.0008608,97.5812,187.4975,315.3676,44.6867,0,999,9171,0.0012672,0.00030605,0,3819026,0 SPACEBEE-109,1 48897U 21059U   23052.31012066  .00030605  00000-0  12672-2 0  9998,2 48897  97.5812 187.4975 0008608 315.3676  44.6867 15.23841884 91711,2021-059U,48897,6872.402,94.498,500.183,488.351,0,2023/4/16
GENERATED VIA SPACETRACK.ORG API,18 SPCS,48897,SPACEBEE-109,PAYLOAD,U,21059U,2023/2/21 7:26,425024,15.23841884,0.0008608,97.5812,187.4975,315.3676,44.6867,0,999,9171,0.0012672,0.00030605,0,3819803,0 SPACEBEE-109,1 48897U 21059U   23052.31012066  .00030605  00000-0  12672-2 0  9998,2 48897  97.5812 187.4975 0008608 315.3676  44.6867 15.23841884 91711,2021-059U,48897,6872.402,94.498,500.183,488.351,0,2023/4/17
GENERATED VIA SPACETRACK.ORG API,18 SPCS,48897,SPACEBEE-109,PAYLOAD,U,21059U,2023/2/21 21:37,186016,15.23882386,0.0008515,97.5813,188.0947,313.0668,46.9855,0,999,9180,0.0013234,0.00032009,0,3821329,0 SPACEBEE-109,1 48897U 21059U   23052.90110169  .00032009  00000-0  13234-2 0  9991,2 48897  97.5813 188.0947 0008515 313.0668  46.9855 15.23882386 91805,2021-059U,48897,6872.28,94.495,499.997,488.294,0,2023/4/18
GENERATED VIA SPACETRACK.ORG API,18 SPCS,48897,SPACEBEE-109,PAYLOAD,U,21059U,2023/2/22 8:39,272960,15.23907439,0.0008466,97.5811,188.5592,311.4564,48.5945,0,999,9187,0.0011366,0.00027484,0,3822961,0 SPACEBEE-109,1 48897U 21059U   23053.36074390  .00027484  00000-0  11366-2 0  9992,2 48897  97.5811 188.5592 0008466 311.4564  48.5945 15.23907439 91878,2021-059U,48897,6872.205,94.494,499.888,488.252,0,2023/4/19
GENERATED VIA SPACETRACK.ORG API,18 SPCS,48897,SPACEBEE-109,PAYLOAD,U,21059U,2023/2/22 8:39,272960,15.23907439,0.0008466,97.5811,188.5592,311.4564,48.5945,0,999,9187,0.0011366,0.00027484,0,3824148,0 SPACEBEE-109,1 48897U 21059U   23053.36074390  .00027484  00000-0  11366-2 0  9992,2 48897  97.5811 188.5592 0008466 311.4564  48.5945 15.23907439 91878,2021-059U,48897,6872.205,94.494,499.888,488.252,0,2023/4/20
GENERATED VIA SPACETRACK.ORG API,18 SPCS,48897,SPACEBEE-109,PAYLOAD,U,21059U,2023/2/22 21:15,821440,15.23938717,0.0008452,97.5811,189.09,309.2019,50.8467,0,999,9195,0.0011623,0.00028136,0,3825529,0 SPACEBEE-109,1 48897U 21059U   23053.88603960  .00028136  00000-0  11623-2 0  9991,2 48897  97.5811 189.0900 0008452 309.2019  50.8467 15.23938717 91959,2021-059U,48897,6872.111,94.492,499.784,488.168,0,2023/4/21
GENERATED VIA SPACETRACK.ORG API,18 SPCS,48897,SPACEBEE-109,PAYLOAD,U,21059U,2023/2/23 14:35,386976,15.23982837,0.0008492,97.5811,189.8201,306.4575,53.5879,0,999,9206,0.0012592,0.00030538,0,3828819,0 SPACEBEE-109,1 48897U 21059U   23054.60830309  .00030538  00000-0  12592-2 0  9996,2 48897  97.5811 189.8201 0008492 306.4575  53.5879 15.23982837 92063,2021-059U,48897,6871.978,94.489,499.679,488.008,0,2023/4/22
GENERATED VIA SPACETRACK.ORG API,18 SPCS,48897,SPACEBEE-109,PAYLOAD,U,21059U,2023/2/23 14:35,386976,15.23982837,0.0008492,97.5811,189.8201,306.4575,53.5879,0,999,9206,0.0012592,0.00030538,0,3829407,0 SPACEBEE-109,1 48897U 21059U   23054.60830309  .00030538  00000-0  12592-2 0  9996,2 48897  97.5811 189.8201 0008492 306.4575  53.5879 15.23982837 92063,2021-059U,48897,6871.978,94.489,499.679,488.008,0,2023/4/23
GENERATED VIA SPACETRACK.ORG API,18 SPCS,48897,SPACEBEE-109,PAYLOAD,U,21059U,2023/2/24 7:55,150208,15.24029824,0.000852,97.5811,190.5503,303.942,56.1006,0,999,9217,0.0013337,0.00032402,0,3832867,0 SPACEBEE-109,1 48897U 21059U   23055.33054572  .00032402  00000-0  13337-2 0  9997,2 48897  97.5811 190.5503 0008520 303.9420  56.1006 15.24029824 92172,2021-059U,48897,6871.837,94.486,499.557,487.847,0,2023/4/24
GENERATED VIA SPACETRACK.ORG API,18 SPCS,48897,SPACEBEE-109,PAYLOAD,U,21059U,2023/2/25 4:25,409184,15.24075576,0.0008468,97.5813,191.4136,301.0249,59.0155,0,999,9230,0.0011029,0.00026798,0,3835520,0 SPACEBEE-109,1 48897U 21059U   23056.18407881  .00026798  00000-0  11029-2 0  9993,2 48897  97.5813 191.4136 0008468 301.0249  59.0155 15.24075576 92302,2021-059U,48897,6871.7,94.484,499.384,487.746,0,2023/4/25
